{"type": "FeatureCollection", "features": [ {"type": "Feature", "properties": {"norad_id": 66465, "name": "STARLINK-35448", "group": "last-30-days", "lat": -25.88321026251537, "lon": 50.71922421685114, "alt_km": 439.92194571304117, "timestamp": "2025-12-10T20:49:51.343990+00:00", "meta": {"OBJECT_NAME": "STARLINK-35448", "OBJECT_ID": "2025-262K", "EPOCH": "2025-12-10T14:00:03.000384", "MEAN_MOTION": 15.43509069, "ECCENTRICITY": 0.00017553, "INCLINATION": 43.0006, "RA_OF_ASC_NODE": 83.7435, "ARG_OF_PERICENTER": 287.02, "MEAN_ANOMALY": 250.4993, "EPHEMERIS_TYPE": 0, "CLASSIFICATION_TYPE": "U", "NORAD_CAT_ID": 66465, "ELEMENT_SET_NO": 999, "REV_AT_EPOCH": 529, "BSTAR": -0.038563039, "MEAN_MOTION_DOT": -0.01590084, "MEAN_MOTION_DDOT": 0}, "tle": {"line1": "1 66465U 25262K   25344.58336806 -.01590084  00000+0 -38563-1 0  9995", "line2": "2 66465  43.0006  83.7435 0001755 287.0200 250.4993 15.43509069  5299"}}, "geometry": {"type": "Point", "coordinates": [50.71922421685114, -25.88321026251537]}}, {"type": "Feature", "properties": {"norad_id": 66466, "name": "STARLINK-35388", "group": "last-30-days", "lat": -19.87088768383742, "lon": 59.250571830878144, "alt_km": 436.3824346507445, "timestamp": "2025-12-10T20:49:51.344001+00:00", "meta": {"OBJECT_NAME": "STARLINK-35388", "OBJECT_ID": "2025-262L", "EPOCH": "2025-12-10T14:00:03.000384", "MEAN_MOTION": 15.4498931, "ECCENTRICITY": 0.00011359, "INCLINATION": 43.0003, "RA_OF_ASC_NODE": 83.7206, "ARG_OF_PERICENTER": 285.7119, "MEAN_ANOMALY": 260.3565, "EPHEMERIS_TYPE": 0, "CLASSIFICATION_TYPE": "U", "NORAD_CAT_ID": 66466, "ELEMENT_SET_NO": 999, "REV_AT_EPOCH": 529, "BSTAR": -0.047725839, "MEAN_MOTION_DOT": -0.02048083, "MEAN_MOTION_DDOT": 0}, "tle": {"line1": "1 66466U 25262L   25344.58336806 -.02048083  00000+0 -47726-1 0  9995", "line2": "2 66466  43.0003  83.7206 0001135 285.7119 260.3565 15.44989310  5296"}}, "geometry": {"type": "Point", "coordinates": [59.250571830878144, -19.87088768383742]}}, {"type": "Feature", "properties": {"norad_id": 66467, "name": "STARLINK-35682", "group": "last-30-days", "lat": -32.066898736656235, "lon": 39.88004169630552, "alt_km": 444.676585709547, "timestamp": "2025-12-10T20:49:51.344011+00:00", "meta": {"OBJECT_NAME": "STARLINK-35682", "OBJECT_ID": "2025-262M", "EPOCH": "2025-12-10T14:00:03.000384", "MEAN_MOTION": 15.42402468, "ECCENTRICITY": 0.00012946, "INCLINATION": 43.0006, "RA_OF_ASC_NODE": 83.7674, "ARG_OF_PERICENTER": 293.7529, "MEAN_ANOMALY": 233.7401, "EPHEMERIS_TYPE": 0, "CLASSIFICATION_TYPE": "U", "NORAD_CAT_ID": 66467, "ELEMENT_SET_NO": 999, "REV_AT_EPOCH": 529, "BSTAR": -0.053749664, "MEAN_MOTION_DOT": -0.02104033, "MEAN_MOTION_DDOT": 0}, "tle": {"line1": "1 66467U 25262M   25344.58336806 -.02104033  00000+0 -53750-1 0  9998", "line2": "2 66467  43.0006  83.7674 0001294 293.7529 233.7401 15.42402468  5294"}}, "geometry": {"type": "Point", "coordinates": [39.88004169630552, -32.066898736656235]}}, {"type": "Feature", "properties": {"norad_id": 66468, "name": "STARLINK-35331", "group": "last-30-days", "lat": -7.172830154355843, "lon": 74.2602216124035, "alt_km": 415.9179643044163, "timestamp": "2025-12-10T20:49:51.344023+00:00", "meta": {"OBJECT_NAME": "STARLINK-35331", "OBJECT_ID": "2025-262N", "EPOCH": "2025-12-10T13:08:42.779904", "MEAN_MOTION": 15.50262791, "ECCENTRICITY": 0.00120892, "INCLINATION": 43.0007, "RA_OF_ASC_NODE": 83.8945, "ARG_OF_PERICENTER": 259.6027, "MEAN_ANOMALY": 100.347, "EPHEMERIS_TYPE": 0, "CLASSIFICATION_TYPE": "U", "NORAD_CAT_ID": 66468, "ELEMENT_SET_NO": 999, "REV_AT_EPOCH": 522, "BSTAR": 0.003351729, "MEAN_MOTION_DOT": 0.00199611, "MEAN_MOTION_DDOT": 0}, "tle": {"line1": "1 66468U 25262N   25344.54771736  .00199611  00000+0  33517-2 0  9992", "line2": "2 66468  43.0007  83.8945 0012089 259.6027 100.3470 15.50262791  5226"}}, "geometry": {"type": "Point", "coordinates": [74.2602216124035, -7.172830154355843]}}, {"type": "Feature", "properties": {"norad_id": 66469, "name": "STARLINK-35451", "group": "last-30-days", "lat": -2.533307492823887, "lon": 79.28226759742371, "alt_km": 415.01442950888304, "timestamp": "2025-12-10T20:49:51.344034+00:00", "meta": {"OBJECT_NAME": "STARLINK-35451", "OBJECT_ID": "2025-262P", "EPOCH": "2025-12-10T14:39:44.461728", "MEAN_MOTION": 15.50413061, "ECCENTRICITY": 0.00014486, "INCLINATION": 43.0008, "RA_OF_ASC_NODE": 83.5069, "ARG_OF_PERICENTER": 307.9056, "MEAN_ANOMALY": 52.1673, "EPHEMERIS_TYPE": 0, "CLASSIFICATION_TYPE": "U", "NORAD_CAT_ID": 66469, "ELEMENT_SET_NO": 999, "REV_AT_EPOCH": 523, "BSTAR": -0.00084898848, "MEAN_MOTION_DOT": -0.00049541, "MEAN_MOTION_DDOT": 0}, "tle": {"line1": "1 66469U 25262P   25344.61093127 -.00049541  00000+0 -84899-3 0  9990", "line2": "2 66469  43.0008  83.5069 0001448 307.9056  52.1673 15.50413061  5236"}}, "geometry": {"type": "Point", "coordinates": [79.28226759742371, -2.533307492823887]}}, {"type": "Feature", "properties": {"norad_id": 66470, "name": "STARLINK-35655", "group": "last-30-days", "lat": -9.688539584089591, "lon": 71.47689347806993, "alt_km": 427.7134343632106, "timestamp": "2025-12-10T20:49:51.344050+00:00", "meta": {"OBJECT_NAME": "STARLINK-35655", "OBJECT_ID": "2025-262Q", "EPOCH": "2025-12-10T14:00:03.000384", "MEAN_MOTION": 15.47658231, "ECCENTRICITY": 0.00011645, "INCLINATION": 43.0003, "RA_OF_ASC_NODE": 83.6898, "ARG_OF_PERICENTER": 286.565, "MEAN_ANOMALY": 272.3845, "EPHEMERIS_TYPE": 0, "CLASSIFICATION_TYPE": "U", "NORAD_CAT_ID": 66470, "ELEMENT_SET_NO": 999, "REV_AT_EPOCH": 529, "BSTAR": -0.043785021, "MEAN_MOTION_DOT": -0.02060612, "MEAN_MOTION_DDOT": 0}, "tle": {"line1": "1 66470U 25262Q   25344.58336806 -.02060612  00000+0 -43785-1 0  9993", "line2": "2 66470  43.0003  83.6898 0001164 286.5650 272.3845 15.47658231  5290"}}, "geometry": {"type": "Point", "coordinates": [71.47689347806993, -9.688539584089591]}}, {"type": "Feature", "properties": {"norad_id": 66471, "name": "STARLINK-35569", "group": "last-30-days", "lat": -4.854830635874747, "lon": 76.78261089250239, "alt_km": 417.82978034296957, "timestamp": "2025-12-10T20:49:51.344060+00:00", "meta": {"OBJECT_NAME": "STARLINK-35569", "OBJECT_ID": "2025-262R", "EPOCH": "2025-12-10T13:07:39.603360", "MEAN_MOTION": 15.49813767, "ECCENTRICITY": 0.00010602, "INCLINATION": 43.0005, "RA_OF_ASC_NODE": 83.8877, "ARG_OF_PERICENTER": 274.4226, "MEAN_ANOMALY": 85.6513, "EPHEMERIS_TYPE": 0, "CLASSIFICATION_TYPE": "U", "NORAD_CAT_ID": 66471, "ELEMENT_SET_NO": 999, "REV_AT_EPOCH": 522, "BSTAR": -0.0032454546, "MEAN_MOTION_DOT": -0.00181387, "MEAN_MOTION_DDOT": 0}, "tle": {"line1": "1 66471U 25262R   25344.54698615 -.00181387  00000+0 -32455-2 0  9993", "line2": "2 66471  43.0005  83.8877 0001060 274.4226  85.6513 15.49813767  5221"}}, "geometry": {"type": "Point", "coordinates": [76.78261089250239, -4.854830635874747]}}, {"type": "Feature", "properties": {"norad_id": 66472, "name": "STARLINK-35567", "group": "last-30-days", "lat": -0.9738292873414165, "lon": 80.95317540384507, "alt_km": 414.6399668047643, "timestamp": "2025-12-10T20:49:51.344070+00:00", "meta": {"OBJECT_NAME": "STARLINK-35567", "OBJECT_ID": "2025-262S", "EPOCH": "2025-12-10T14:39:12.375360", "MEAN_MOTION": 15.50607834, "ECCENTRICITY": 0.00016295, "INCLINATION": 43.0004, "RA_OF_ASC_NODE": 83.5044, "ARG_OF_PERICENTER": 271.3384, "MEAN_ANOMALY": 88.7289, "EPHEMERIS_TYPE": 0, "CLASSIFICATION_TYPE": "U", "NORAD_CAT_ID": 66472, "ELEMENT_SET_NO": 999, "REV_AT_EPOCH": 523, "BSTAR": 0.0014064855, "MEAN_MOTION_DOT": 0.00083137, "MEAN_MOTION_DDOT": 0}, "tle": {"line1": "1 66472U 25262S   25344.61055990  .00083137  00000+0  14065-2 0  9994", "line2": "2 66472  43.0004  83.5044 0001629 271.3384  88.7289 15.50607834  5239"}}, "geometry": {"type": "Point", "coordinates": [80.95317540384507, -0.9738292873414165]}}, {"type": "Feature", "properties": {"norad_id": 66473, "name": "STARLINK-35568", "group": "last-30-days", "lat": 0.3239682984398556, "lon": 82.3408402246837, "alt_km": 414.65608021392836, "timestamp": "2025-12-10T20:49:51.344079+00:00", "meta": {"OBJECT_NAME": "STARLINK-35568", "OBJECT_ID": "2025-262T", "EPOCH": "2025-12-10T14:38:42.996768", "MEAN_MOTION": 15.50601263, "ECCENTRICITY": 0.00017265, "INCLINATION": 43.0006, "RA_OF_ASC_NODE": 83.5012, "ARG_OF_PERICENTER": 261.997, "MEAN_ANOMALY": 98.0695, "EPHEMERIS_TYPE": 0, "CLASSIFICATION_TYPE": "U", "NORAD_CAT_ID": 66473, "ELEMENT_SET_NO": 999, "REV_AT_EPOCH": 523, "BSTAR": 0.0020486481, "MEAN_MOTION_DOT": 0.00121828, "MEAN_MOTION_DDOT": 0}, "tle": {"line1": "1 66473U 25262T   25344.61021987  .00121828  00000+0  20486-2 0  9998", "line2": "2 66473  43.0006  83.5012 0001726 261.9970  98.0695 15.50601263  5236"}}, "geometry": {"type": "Point", "coordinates": [82.3408402246837, 0.3239682984398556]}}, {"type": "Feature", "properties": {"norad_id": 66474, "name": "STARLINK-35620", "group": "last-30-days", "lat": 1.527604477598319, "lon": 83.6278835899668, "alt_km": 414.1379087892692, "timestamp": "2025-12-10T20:49:51.344090+00:00", "meta": {"OBJECT_NAME": "STARLINK-35620", "OBJECT_ID": "2025-262U", "EPOCH": "2025-12-10T14:38:15.116352", "MEAN_MOTION": 15.50561865, "ECCENTRICITY": 0.00012662, "INCLINATION": 43.0008, "RA_OF_ASC_NODE": 83.4978, "ARG_OF_PERICENTER": 294.4879, "MEAN_ANOMALY": 65.5849, "EPHEMERIS_TYPE": 0, "CLASSIFICATION_TYPE": "U", "NORAD_CAT_ID": 66474, "ELEMENT_SET_NO": 999, "REV_AT_EPOCH": 523, "BSTAR": 0.0019651949, "MEAN_MOTION_DOT": 0.00116607, "MEAN_MOTION_DDOT": 0}, "tle": {"line1": "1 66474U 25262U   25344.60989718  .00116607  00000+0  19652-2 0  9995", "line2": "2 66474  43.0008  83.4978 0001266 294.4879  65.5849 15.50561865  5230"}}, "geometry": {"type": "Point", "coordinates": [83.6278835899668, 1.527604477598319]}}]}